<?xml version="1.0" encoding="UTF-8"?>
<ndm xmlns:xsi="http://www.w3.org/2001/XMLSchema-instance" xsi:noNamespaceSchemaLocation="https://sanaregistry.org/r/ndmxml_unqualified/ndmxml-2.0.0-master-2.0.xsd">
<omm id="CCSDS_OMM_VERS" version="2.0">
<header><CREATION_DATE/><ORIGINATOR/></header><body><segment><metadata><OBJECT_NAME>IRIDIUM 921 [-]</OBJECT_NAME><OBJECT_ID>1997-034E</OBJECT_ID><CENTER_NAME>EARTH</CENTER_NAME><REF_FRAME>TEME</REF_FRAME><TIME_SYSTEM>UTC</TIME_SYSTEM><MEAN_ELEMENT_THEORY>SGP4</MEAN_ELEMENT_THEORY></metadata><data><meanElements><EPOCH>2024-02-25T20:17:58.991424</EPOCH><MEAN_MOTION>15.32360010</MEAN_MOTION><ECCENTRICITY>.0003614</ECCENTRICITY><INCLINATION>86.3893</INCLINATION><RA_OF_ASC_NODE>343.4030</RA_OF_ASC_NODE><ARG_OF_PERICENTER>19.7433</ARG_OF_PERICENTER><MEAN_ANOMALY>340.3956</MEAN_ANOMALY></meanElements><tleParameters><EPHEMERIS_TYPE>0</EPHEMERIS_TYPE><CLASSIFICATION_TYPE>U</CLASSIFICATION_TYPE><NORAD_CAT_ID>24873</NORAD_CAT_ID><ELEMENT_SET_NO>999</ELEMENT_SET_NO><REV_AT_EPOCH>45794</REV_AT_EPOCH><BSTAR>.94162E-3</BSTAR><MEAN_MOTION_DOT>.2951E-3</MEAN_MOTION_DOT><MEAN_MOTION_DDOT>0</MEAN_MOTION_DDOT></tleParameters></data></segment></body></omm>
<omm id="CCSDS_OMM_VERS" version="2.0">
<header><CREATION_DATE/><ORIGINATOR/></header><body><segment><metadata><OBJECT_NAME>IRIDIUM 26 [-]</OBJECT_NAME><OBJECT_ID>1997-043A</OBJECT_ID><CENTER_NAME>EARTH</CENTER_NAME><REF_FRAME>TEME</REF_FRAME><TIME_SYSTEM>UTC</TIME_SYSTEM><MEAN_ELEMENT_THEORY>SGP4</MEAN_ELEMENT_THEORY></metadata><data><meanElements><EPOCH>2024-02-25T17:55:04.912896</EPOCH><MEAN_MOTION>14.36221726</MEAN_MOTION><ECCENTRICITY>.000192</ECCENTRICITY><INCLINATION>86.3970</INCLINATION><RA_OF_ASC_NODE>310.9668</RA_OF_ASC_NODE><ARG_OF_PERICENTER>88.2588</ARG_OF_PERICENTER><MEAN_ANOMALY>271.8829</MEAN_ANOMALY></meanElements><tleParameters><EPHEMERIS_TYPE>0</EPHEMERIS_TYPE><CLASSIFICATION_TYPE>U</CLASSIFICATION_TYPE><NORAD_CAT_ID>24903</NORAD_CAT_ID><ELEMENT_SET_NO>999</ELEMENT_SET_NO><REV_AT_EPOCH>38819</REV_AT_EPOCH><BSTAR>.19328E-3</BSTAR><MEAN_MOTION_DOT>.583E-5</MEAN_MOTION_DOT><MEAN_MOTION_DDOT>0</MEAN_MOTION_DDOT></tleParameters></data></segment></body></omm>
<omm id="CCSDS_OMM_VERS" version="2.0">
<header><CREATION_DATE/><ORIGINATOR/></header><body><segment><metadata><OBJECT_NAME>IRIDIUM 22 [-]</OBJECT_NAME><OBJECT_ID>1997-043E</OBJECT_ID><CENTER_NAME>EARTH</CENTER_NAME><REF_FRAME>TEME</REF_FRAME><TIME_SYSTEM>UTC</TIME_SYSTEM><MEAN_ELEMENT_THEORY>SGP4</MEAN_ELEMENT_THEORY></metadata><data><meanElements><EPOCH>2024-02-25T18:50:44.443968</EPOCH><MEAN_MOTION>14.35118260</MEAN_MOTION><ECCENTRICITY>.0002128</ECCENTRICITY><INCLINATION>86.3980</INCLINATION><RA_OF_ASC_NODE>314.0982</RA_OF_ASC_NODE><ARG_OF_PERICENTER>83.7919</ARG_OF_PERICENTER><MEAN_ANOMALY>276.3520</MEAN_ANOMALY></meanElements><tleParameters><EPHEMERIS_TYPE>0</EPHEMERIS_TYPE><CLASSIFICATION_TYPE>U</CLASSIFICATION_TYPE><NORAD_CAT_ID>24907</NORAD_CAT_ID><ELEMENT_SET_NO>999</ELEMENT_SET_NO><REV_AT_EPOCH>38828</REV_AT_EPOCH><BSTAR>.1914E-3</BSTAR><MEAN_MOTION_DOT>.566E-5</MEAN_MOTION_DOT><MEAN_MOTION_DDOT>0</MEAN_MOTION_DDOT></tleParameters></data></segment></body></omm>
<omm id="CCSDS_OMM_VERS" version="2.0">
<header><CREATION_DATE/><ORIGINATOR/></header><body><segment><metadata><OBJECT_NAME>DUMMY MASS 1 [-]</OBJECT_NAME><OBJECT_ID>1997-048A</OBJECT_ID><CENTER_NAME>EARTH</CENTER_NAME><REF_FRAME>TEME</REF_FRAME><TIME_SYSTEM>UTC</TIME_SYSTEM><MEAN_ELEMENT_THEORY>SGP4</MEAN_ELEMENT_THEORY></metadata><data><meanElements><EPOCH>2024-02-25T21:11:00.541824</EPOCH><MEAN_MOTION>14.86067423</MEAN_MOTION><ECCENTRICITY>.0008598</ECCENTRICITY><INCLINATION>86.3397</INCLINATION><RA_OF_ASC_NODE>355.8672</RA_OF_ASC_NODE><ARG_OF_PERICENTER>50.8429</ARG_OF_PERICENTER><MEAN_ANOMALY>309.3558</MEAN_ANOMALY></meanElements><tleParameters><EPHEMERIS_TYPE>0</EPHEMERIS_TYPE><CLASSIFICATION_TYPE>U</CLASSIFICATION_TYPE><NORAD_CAT_ID>24925</NORAD_CAT_ID><ELEMENT_SET_NO>999</ELEMENT_SET_NO><REV_AT_EPOCH>43422</REV_AT_EPOCH><BSTAR>.91989E-4</BSTAR><MEAN_MOTION_DOT>.833E-5</MEAN_MOTION_DOT><MEAN_MOTION_DDOT>0</MEAN_MOTION_DDOT></tleParameters></data></segment></body></omm>
<omm id="CCSDS_OMM_VERS" version="2.0">
<header><CREATION_DATE/><ORIGINATOR/></header><body><segment><metadata><OBJECT_NAME>DUMMY MASS 2 [-]</OBJECT_NAME><OBJECT_ID>1997-048B</OBJECT_ID><CENTER_NAME>EARTH</CENTER_NAME><REF_FRAME>TEME</REF_FRAME><TIME_SYSTEM>UTC</TIME_SYSTEM><MEAN_ELEMENT_THEORY>SGP4</MEAN_ELEMENT_THEORY></metadata><data><meanElements><EPOCH>2024-02-25T21:37:31.463040</EPOCH><MEAN_MOTION>14.85826720</MEAN_MOTION><ECCENTRICITY>.0009654</ECCENTRICITY><INCLINATION>86.3398</INCLINATION><RA_OF_ASC_NODE>357.3807</RA_OF_ASC_NODE><ARG_OF_PERICENTER>58.3631</ARG_OF_PERICENTER><MEAN_ANOMALY>301.8534</MEAN_ANOMALY></meanElements><tleParameters><EPHEMERIS_TYPE>0</EPHEMERIS_TYPE><CLASSIFICATION_TYPE>U</CLASSIFICATION_TYPE><NORAD_CAT_ID>24926</NORAD_CAT_ID><ELEMENT_SET_NO>999</ELEMENT_SET_NO><REV_AT_EPOCH>43401</REV_AT_EPOCH><BSTAR>.92006E-4</BSTAR><MEAN_MOTION_DOT>.829E-5</MEAN_MOTION_DOT><MEAN_MOTION_DDOT>0</MEAN_MOTION_DDOT></tleParameters></data></segment></body></omm>
<omm id="CCSDS_OMM_VERS" version="2.0">
<header><CREATION_DATE/><ORIGINATOR/></header><body><segment><metadata><OBJECT_NAME>IRIDIUM 29 [-]</OBJECT_NAME><OBJECT_ID>1997-051A</OBJECT_ID><CENTER_NAME>EARTH</CENTER_NAME><REF_FRAME>TEME</REF_FRAME><TIME_SYSTEM>UTC</TIME_SYSTEM><MEAN_ELEMENT_THEORY>SGP4</MEAN_ELEMENT_THEORY></metadata><data><meanElements><EPOCH>2024-02-25T21:26:22.873056</EPOCH><MEAN_MOTION>14.35574041</MEAN_MOTION><ECCENTRICITY>.0002284</ECCENTRICITY><INCLINATION>86.4012</INCLINATION><RA_OF_ASC_NODE>343.9798</RA_OF_ASC_NODE><ARG_OF_PERICENTER>79.8945</ARG_OF_PERICENTER><MEAN_ANOMALY>280.2509</MEAN_ANOMALY></meanElements><tleParameters><EPHEMERIS_TYPE>0</EPHEMERIS_TYPE><CLASSIFICATION_TYPE>U</CLASSIFICATION_TYPE><NORAD_CAT_ID>24944</NORAD_CAT_ID><ELEMENT_SET_NO>999</ELEMENT_SET_NO><REV_AT_EPOCH>38477</REV_AT_EPOCH><BSTAR>.22497E-3</BSTAR><MEAN_MOTION_DOT>.667E-5</MEAN_MOTION_DOT><MEAN_MOTION_DDOT>0</MEAN_MOTION_DDOT></tleParameters></data></segment></body></omm>
<omm id="CCSDS_OMM_VERS" version="2.0">
<header><CREATION_DATE/><ORIGINATOR/></header><body><segment><metadata><OBJECT_NAME>IRIDIUM 33 [-]</OBJECT_NAME><OBJECT_ID>1997-051C</OBJECT_ID><CENTER_NAME>EARTH</CENTER_NAME><REF_FRAME>TEME</REF_FRAME><TIME_SYSTEM>UTC</TIME_SYSTEM><MEAN_ELEMENT_THEORY>SGP4</MEAN_ELEMENT_THEORY></metadata><data><meanElements><EPOCH>2024-02-25T21:16:01.374528</EPOCH><MEAN_MOTION>14.34271072</MEAN_MOTION><ECCENTRICITY>.0007465</ECCENTRICITY><INCLINATION>86.3927</INCLINATION><RA_OF_ASC_NODE>343.2436</RA_OF_ASC_NODE><ARG_OF_PERICENTER>180.3660</ARG_OF_PERICENTER><MEAN_ANOMALY>179.7531</MEAN_ANOMALY></meanElements><tleParameters><EPHEMERIS_TYPE>0</EPHEMERIS_TYPE><CLASSIFICATION_TYPE>U</CLASSIFICATION_TYPE><NORAD_CAT_ID>24946</NORAD_CAT_ID><ELEMENT_SET_NO>999</ELEMENT_SET_NO><REV_AT_EPOCH>38431</REV_AT_EPOCH><BSTAR>.16113E-3</BSTAR><MEAN_MOTION_DOT>.472E-5</MEAN_MOTION_DOT><MEAN_MOTION_DDOT>0</MEAN_MOTION_DDOT></tleParameters></data></segment></body></omm>
<omm id="CCSDS_OMM_VERS" version="2.0">
<header><CREATION_DATE/><ORIGINATOR/></header><body><segment><metadata><OBJECT_NAME>IRIDIUM 28 [-]</OBJECT_NAME><OBJECT_ID>1997-051E</OBJECT_ID><CENTER_NAME>EARTH</CENTER_NAME><REF_FRAME>TEME</REF_FRAME><TIME_SYSTEM>UTC</TIME_SYSTEM><MEAN_ELEMENT_THEORY>SGP4</MEAN_ELEMENT_THEORY></metadata><data><meanElements><EPOCH>2024-02-25T19:58:16.638528</EPOCH><MEAN_MOTION>14.36522551</MEAN_MOTION><ECCENTRICITY>.0001958</ECCENTRICITY><INCLINATION>86.4016</INCLINATION><RA_OF_ASC_NODE>341.7966</RA_OF_ASC_NODE><ARG_OF_PERICENTER>95.9264</ARG_OF_PERICENTER><MEAN_ANOMALY>264.2156</MEAN_ANOMALY></meanElements><tleParameters><EPHEMERIS_TYPE>0</EPHEMERIS_TYPE><CLASSIFICATION_TYPE>U</CLASSIFICATION_TYPE><NORAD_CAT_ID>24948</NORAD_CAT_ID><ELEMENT_SET_NO>999</ELEMENT_SET_NO><REV_AT_EPOCH>38529</REV_AT_EPOCH><BSTAR>.2251E-3</BSTAR><MEAN_MOTION_DOT>.68E-5</MEAN_MOTION_DOT><MEAN_MOTION_DDOT>0</MEAN_MOTION_DDOT></tleParameters></data></segment></body></omm>

</ndm>
